{
  "norad_id": 64522,
  "name": "KUIPER-00062",
  "history": [
    {
      "epoch": "2026-03-28T21:05:46.315392",
      "apogee_km": 630.1032512631473,
      "perigee_km": 629.2651158495928,
      "latitude_deg": 17.652616856464423,
      "longitude_deg": -3.4152051201090217,
      "semi_major_axis_km": 7007.82118355637,
      "eccentricity": 5.98e-05,
      "inclination_deg": 51.8954,
      "raan_deg": 145.7618,
      "arg_perigee_deg": 95.3216,
      "mean_anomaly_deg": 264.7815,
      "mean_motion_rev_day": 14.79885942
    }
  ]
}